0 DELTA 1 DEB
1 12294U 78026EN  13282.08023341  .00000413  00000-0  14203-3 0  7098
2 12294 098.2978 317.3205 0100605 176.7392 183.4473 14.38105310707113
0 DELTA 1 DEB
1 12294U 78026EN  13287.64639325  .00000533  00000-0  17928-3 0  7113
2 12294 098.2965 322.6993 0100920 160.1305 200.3858 14.38110764707927
0 DELTA 1 DEB
1 12294U 78026EN  13289.66411879  .00000536  00000-0  18026-3 0  7123
2 12294 098.2962 324.6487 0101033 154.1278 206.5012 14.38113957708212
0 DELTA 1 DEB
1 12294U 78026EN  13292.51675694  .00000523  00000-0  17620-3 0  7134
2 12294 098.2958 327.4047 0101164 145.6471 215.1313 14.38116814708625
0 DELTA 1 DEB
1 12294U 78026EN  13294.67362346  .00000597  00000-0  19908-3 0  7143
2 12294 098.2959 329.4882 0101219 139.2504 221.6312 14.38119401708932
